[{"OBJECT_NAME":"STARLINK-31947","OBJECT_ID":"2024-097A","EPOCH":"2026-03-08T23:57:43.780896","MEAN_MOTION":15.27562328,"ECCENTRICITY":0.00010676,"INCLINATION":42.9964,"RA_OF_ASC_NODE":278.0507,"ARG_OF_PERICENTER":272.1636,"MEAN_ANOMALY":87.9094,"EPHEMERIS_TYPE":0,"CLASSIFICATION_TYPE":"U","NORAD_CAT_ID":59835,"ELEMENT_SET_NO":999,"REV_AT_EPOCH":10181,"BSTAR":-1.4865394e-5,"MEAN_MOTION_DOT":-6.71e-6,"MEAN_MOTION_DDOT":0},{"OBJECT_NAME":"COSMOS 1862","OBJECT_ID":"1987-055A","EPOCH":"2026-03-09T22:37:02.390592","MEAN_MOTION":15.30492139,"ECCENTRICITY":0.00097484,"INCLINATION":82.4856,"RA_OF_ASC_NODE":47.1862,"ARG_OF_PERICENTER":26.6325,"MEAN_ANOMALY":333.5414,"EPHEMERIS_TYPE":0,"CLASSIFICATION_TYPE":"U","NORAD_CAT_ID":18152,"ELEMENT_SET_NO":999,"REV_AT_EPOCH":8987,"BSTAR":0.00034125048,"MEAN_MOTION_DOT":0.00010107,"MEAN_MOTION_DDOT":0}]
